NAVSTAR 62 (USA 201)    
1 32711U 08012A   23116.40767619 -.00000016  00000+0  00000+0 0  9994
2 32711  54.4532 195.7089 0173430 234.2461 124.1827  2.00554025110738
NAVSTAR 64 (USA 206)    
1 35752U 09043A   23116.64089689 -.00000024  00000+0  00000+0 0  9996
2 35752  55.3261  72.9464 0056720  64.0804 118.8181  2.00566004100349
COSMOS 2456 [GLONASS-M] 
1 36111U 09070A   23116.50327376  .00000055  00000+0  00000+0 0  9992
2 36111  64.4457 110.2997 0006283 300.8385  53.2296  2.13099190104005
COSMOS 2457 [GLONASS-M] 
1 36112U 09070B   23116.58101468  .00000056  00000+0  00000+0 0  9994
2 36112  64.4301 110.1661 0003977 201.9111 341.5650  2.13101337104011
COSMOS 2460 [GLONASS-M] 
1 36402U 10007C   23116.60375028 -.00000079  00000+0  00000+0 0  9992
2 36402  65.9132 353.0131 0002441  28.7596 159.0612  2.13106272102367
NAVSTAR 65 (USA 213)    
1 36585U 10022A   23116.47374376 -.00000013  00000+0  00000+0 0  9999
2 36585  54.6276 254.8730 0109500  59.4506 120.2680  2.00555221 94578
BEIDOU-2 IGSO-1         
1 36828U 10036A   23117.04625297 -.00000107  00000+0  00000+0 0  9993
2 36828  54.2066 173.3667 0035480 191.3376 334.1715  1.00260302 46722
BEIDOU-2 IGSO-2         
1 37256U 10068A   23116.86524310 -.00000191  00000+0  00000+0 0  9990
2 37256  49.6457 285.8777 0024403 200.3419 148.3981  1.00268244 45286
BEIDOU-2 IGSO-3         
1 37384U 11013A   23116.83862362 -.00000185  00000+0  00000+0 0  9995
2 37384  60.7520  51.1686 0022378 186.2066  26.3543  1.00272009 44164
GSAT-8                  
1 37605U 11022A   23116.85049267  .00000082  00000+0  00000+0 0  9999
2 37605   0.0390  82.7931 0004810 225.7786 267.2629  1.00272092 43739
NAVSTAR 66 (USA 232)    
1 37753U 11036A   23116.55341764 -.00000109  00000+0  00000+0 0  9993
2 37753  56.7149  16.5369 0125577  54.0772 265.9641  2.00567551 86256
BEIDOU-2 IGSO-4         
1 37763U 11038A   23117.04403307 -.00000057  00000+0  00000+0 0  9995
2 37763  54.4842 175.8868 0108616 228.9532 279.2331  1.00258705 43148
GSAT0101 (GALILEO-PFM)  
1 37846U 11060A   23114.72877128 -.00000108  00000+0  00000+0 0  9997
2 37846  57.0845  12.8881 0004288  22.6775 337.3720  1.70476112 71527
GSAT0102 (GALILEO-FM2)  
1 37847U 11060B   23116.28921531 -.00000105  00000+0  00000+0 0  9996
2 37847  57.0855  12.8455 0004590 354.7500 289.5459  1.70475517 71555
COSMOS 2476 [GLONASS-M] 
1 37867U 11064A   23116.26754470  .00000054  00000+0  00000+0 0  9998
2 37867  64.7285 111.7847 0023951 241.3384 200.1011  2.13101769 89359
