[{"OBJECT_NAME":"GPS BIIRM-6 (PRN 07)","OBJECT_ID":"2008-012A","EPOCH":"2023-04-26T09:47:03.222816","MEAN_MOTION":2.00554025,"ECCENTRICITY":0.017343,"INCLINATION":54.4532,"RA_OF_ASC_NODE":195.7089,"ARG_OF_PERICENTER":234.2461,"MEAN_ANOMALY":124.1827,"EPHEMERIS_TYPE":0,"CLASSIFICATION_TYPE":"U","NORAD_CAT_ID":32711,"ELEMENT_SET_NO":999,"REV_AT_EPOCH":11073,"BSTAR":0,"MEAN_MOTION_DOT":-1.6e-7,"MEAN_MOTION_DDOT":0},{"OBJECT_NAME":"GPS BIIRM-8 (PRN 05)","OBJECT_ID":"2009-043A","EPOCH":"2023-04-26T15:22:53.491296","MEAN_MOTION":2.00566004,"ECCENTRICITY":0.005672,"INCLINATION":55.3261,"RA_OF_ASC_NODE":72.9464,"ARG_OF_PERICENTER":64.0804,"MEAN_ANOMALY":118.8181,"EPHEMERIS_TYPE":0,"CLASSIFICATION_TYPE":"U","NORAD_CAT_ID":35752,"ELEMENT_SET_NO":999,"REV_AT_EPOCH":10034,"BSTAR":0,"MEAN_MOTION_DOT":-2.4e-7,"MEAN_MOTION_DDOT":0},{"OBJECT_NAME":"COSMOS 2456 (730)","OBJECT_ID":"2009-070A","EPOCH":"2023-04-26T12:04:42.852864","MEAN_MOTION":2.1309919,"ECCENTRICITY":0.0006283,"INCLINATION":64.4457,"RA_OF_ASC_NODE":110.2997,"ARG_OF_PERICENTER":300.8385,"MEAN_ANOMALY":53.2296,"EPHEMERIS_TYPE":0,"CLASSIFICATION_TYPE":"U","NORAD_CAT_ID":36111,"ELEMENT_SET_NO":999,"REV_AT_EPOCH":10400,"BSTAR":0,"MEAN_MOTION_DOT":5.5e-7,"MEAN_MOTION_DDOT":0},{"OBJECT_NAME":"COSMOS 2457 (733)","OBJECT_ID":"2009-070B","EPOCH":"2023-04-26T13:56:39.668352","MEAN_MOTION":2.13101337,"ECCENTRICITY":0.0003977,"INCLINATION":64.4301,"RA_OF_ASC_NODE":110.1661,"ARG_OF_PERICENTER":201.9111,"MEAN_ANOMALY":341.565,"EPHEMERIS_TYPE":0,"CLASSIFICATION_TYPE":"U","NORAD_CAT_ID":36112,"ELEMENT_SET_NO":999,"REV_AT_EPOCH":10401,"BSTAR":0,"MEAN_MOTION_DOT":5.6e-7,"MEAN_MOTION_DDOT":0},{"OBJECT_NAME":"COSMOS 2460 (732)","OBJECT_ID":"2010-007C","EPOCH":"2023-04-26T14:29:24.024192","MEAN_MOTION":2.13106272,"ECCENTRICITY":0.0002441,"INCLINATION":65.9132,"RA_OF_ASC_NODE":353.0131,"ARG_OF_PERICENTER":28.7596,"MEAN_ANOMALY":159.0612,"EPHEMERIS_TYPE":0,"CLASSIFICATION_TYPE":"U","NORAD_CAT_ID":36402,"ELEMENT_SET_NO":999,"REV_AT_EPOCH":10236,"BSTAR":0,"MEAN_MOTION_DOT":-7.9e-7,"MEAN_MOTION_DDOT":0},{"OBJECT_NAME":"GPS BIIF-1  (PRN 25)","OBJECT_ID":"2010-022A","EPOCH":"2023-04-26T11:22:11.460864","MEAN_MOTION":2.00555221,"ECCENTRICITY":0.01095,"INCLINATION":54.6276,"RA_OF_ASC_NODE":254.873,"ARG_OF_PERICENTER":59.4506,"MEAN_ANOMALY":120.268,"EPHEMERIS_TYPE":0,"CLASSIFICATION_TYPE":"U","NORAD_CAT_ID":36585,"ELEMENT_SET_NO":999,"REV_AT_EPOCH":9457,"BSTAR":0,"MEAN_MOTION_DOT":-1.3e-7,"MEAN_MOTION_DDOT":0},{"OBJECT_NAME":"BEIDOU-2 IGSO-1 (C06)","OBJECT_ID":"2010-036A","EPOCH":"2023-04-27T01:06:36.256608","MEAN_MOTION":1.00260302,"ECCENTRICITY":0.003548,"INCLINATION":54.2066,"RA_OF_ASC_NODE":173.3667,"ARG_OF_PERICENTER":191.3376,"MEAN_ANOMALY":334.1715,"EPHEMERIS_TYPE":0,"CLASSIFICATION_TYPE":"U","NORAD_CAT_ID":36828,"ELEMENT_SET_NO":999,"REV_AT_EPOCH":4672,"BSTAR":0,"MEAN_MOTION_DOT":-1.07e-6,"MEAN_MOTION_DDOT":0},{"OBJECT_NAME":"BEIDOU-2 IGSO-2 (C07)","OBJECT_ID":"2010-068A","EPOCH":"2023-04-26T20:45:57.003840","MEAN_MOTION":1.00268244,"ECCENTRICITY":0.0024403,"INCLINATION":49.6457,"RA_OF_ASC_NODE":285.8777,"ARG_OF_PERICENTER":200.3419,"MEAN_ANOMALY":148.3981,"EPHEMERIS_TYPE":0,"CLASSIFICATION_TYPE":"U","NORAD_CAT_ID":37256,"ELEMENT_SET_NO":999,"REV_AT_EPOCH":4528,"BSTAR":0,"MEAN_MOTION_DOT":-1.91e-6,"MEAN_MOTION_DDOT":0},{"OBJECT_NAME":"BEIDOU-2 IGSO-3 (C08)","OBJECT_ID":"2011-013A","EPOCH":"2023-04-26T20:07:37.080768","MEAN_MOTION":1.00272009,"ECCENTRICITY":0.0022378,"INCLINATION":60.752,"RA_OF_ASC_NODE":51.1686,"ARG_OF_PERICENTER":186.2066,"MEAN_ANOMALY":26.3543,"EPHEMERIS_TYPE":0,"CLASSIFICATION_TYPE":"U","NORAD_CAT_ID":37384,"ELEMENT_SET_NO":999,"REV_AT_EPOCH":4416,"BSTAR":0,"MEAN_MOTION_DOT":-1.85e-6,"MEAN_MOTION_DDOT":0},{"OBJECT_NAME":"GSAT-8 (GAGAN\/PRN 127)","OBJECT_ID":"2011-022A","EPOCH":"2023-04-26T20:24:42.566688","MEAN_MOTION":1.00272092,"ECCENTRICITY":0.000481,"INCLINATION":0.039,"RA_OF_ASC_NODE":82.7931,"ARG_OF_PERICENTER":225.7786,"MEAN_ANOMALY":267.2629,"EPHEMERIS_TYPE":0,"CLASSIFICATION_TYPE":"U","NORAD_CAT_ID":37605,"ELEMENT_SET_NO":999,"REV_AT_EPOCH":4373,"BSTAR":0,"MEAN_MOTION_DOT":8.2e-7,"MEAN_MOTION_DDOT":0},{"OBJECT_NAME":"GPS BIIF-2  (PRN 01)","OBJECT_ID":"2011-036A","EPOCH":"2023-04-26T13:16:55.284096","MEAN_MOTION":2.00567551,"ECCENTRICITY":0.0125577,"INCLINATION":56.7149,"RA_OF_ASC_NODE":16.5369,"ARG_OF_PERICENTER":54.0772,"MEAN_ANOMALY":265.9641,"EPHEMERIS_TYPE":0,"CLASSIFICATION_TYPE":"U","NORAD_CAT_ID":37753,"ELEMENT_SET_NO":999,"REV_AT_EPOCH":8625,"BSTAR":0,"MEAN_MOTION_DOT":-1.09e-6,"MEAN_MOTION_DDOT":0},{"OBJECT_NAME":"BEIDOU-2 IGSO-4 (C09)","OBJECT_ID":"2011-038A","EPOCH":"2023-04-27T01:03:24.457248","MEAN_MOTION":1.00258705,"ECCENTRICITY":0.0108616,"INCLINATION":54.4842,"RA_OF_ASC_NODE":175.8868,"ARG_OF_PERICENTER":228.9532,"MEAN_ANOMALY":279.2331,"EPHEMERIS_TYPE":0,"CLASSIFICATION_TYPE":"U","NORAD_CAT_ID":37763,"ELEMENT_SET_NO":999,"REV_AT_EPOCH":4314,"BSTAR":0,"MEAN_MOTION_DOT":-5.7e-7,"MEAN_MOTION_DDOT":0},{"OBJECT_NAME":"GSAT0101 (PRN E11)","OBJECT_ID":"2011-060A","EPOCH":"2023-04-24T17:29:25.838592","MEAN_MOTION":1.70476112,"ECCENTRICITY":0.0004288,"INCLINATION":57.0845,"RA_OF_ASC_NODE":12.8881,"ARG_OF_PERICENTER":22.6775,"MEAN_ANOMALY":337.372,"EPHEMERIS_TYPE":0,"CLASSIFICATION_TYPE":"U","NORAD_CAT_ID":37846,"ELEMENT_SET_NO":999,"REV_AT_EPOCH":7152,"BSTAR":0,"MEAN_MOTION_DOT":-1.08e-6,"MEAN_MOTION_DDOT":0},{"OBJECT_NAME":"GSAT0102 (PRN E12)","OBJECT_ID":"2011-060B","EPOCH":"2023-04-26T06:56:28.202784","MEAN_MOTION":1.70475517,"ECCENTRICITY":0.000459,"INCLINATION":57.0855,"RA_OF_ASC_NODE":12.8455,"ARG_OF_PERICENTER":354.75,"MEAN_ANOMALY":289.5459,"EPHEMERIS_TYPE":0,"CLASSIFICATION_TYPE":"U","NORAD_CAT_ID":37847,"ELEMENT_SET_NO":999,"REV_AT_EPOCH":7155,"BSTAR":0,"MEAN_MOTION_DOT":-1.05e-6,"MEAN_MOTION_DDOT":0},{"OBJECT_NAME":"COSMOS 2476 (744)","OBJECT_ID":"2011-064A","EPOCH":"2023-04-26T06:25:15.862080","MEAN_MOTION":2.13101769,"ECCENTRICITY":0.0023951,"INCLINATION":64.7285,"RA_OF_ASC_NODE":111.7847,"ARG_OF_PERICENTER":241.3384,"MEAN_ANOMALY":200.1011,"EPHEMERIS_TYPE":0,"CLASSIFICATION_TYPE":"U","NORAD_CAT_ID":37867,"ELEMENT_SET_NO":999,"REV_AT_EPOCH":8935,"BSTAR":0,"MEAN_MOTION_DOT":5.4e-7,"MEAN_MOTION_DDOT":0}]
